O3B FM5                 
1 39188U 13031A   23087.52174826 -.00000030  00000+0  00000+0 0  9994
2 39188   0.0635 353.5543 0002951  16.7661 349.6824  5.00115539178176
O3B FM4                 
1 39189U 13031B   23087.37768923 -.00000030  00000+0  00000+0 0  9995
2 39189   0.0399  10.3316 0002882 359.7786 349.8923  5.00116016178185
O3B FM2                 
1 39190U 13031C   23087.46935231 -.00000030  00000+0  00000+0 0  9995
2 39190   0.0355  14.4061 0002816 354.4514 351.1441  5.00115289178248
O3B PFM                 
1 39191U 13031D   23087.69531083 -.00000030  00000+0  00000+0 0  9998
2 39191   0.0562 358.6827 0002661   6.8580 354.4591  5.00116034177803
O3B FM3                 
1 40079U 14038A   23088.14972335 -.00000030  00000+0  00000+0 0  9993
2 40079   0.0457   3.5939 0003085 314.3154  42.0638  5.00116738159294
O3B FM7                 
1 40080U 14038B   23087.49638056 -.00000030  00000+0  00000+0 0  9991
2 40080   0.0413   2.0866 0003867  29.1487 328.7844  5.00115748159012
O3B FM6                 
1 40081U 14038C   23087.72272625 -.00000030  00000+0  00000+0 0  9994
2 40081   0.0455   4.8509 0002753   0.8080 354.3409  5.00115386158964
O3B FM8                 
1 40082U 14038D   23086.97693601 -.00000030  00000+0  00000+0 0  9992
2 40082   0.0437   8.0744 0002577 357.3316 354.5935  5.00115855159056
O3B FM10                
1 40348U 14083A   23087.60287151 -.00000030  00000+0  00000+0 0  9997
2 40348   0.0544   3.7558 0002663   2.7456 353.4988  5.00115333151034
O3B FM11                
1 40349U 14083B   23087.81613707 -.00000030  00000+0  00000+0 0  9991
2 40349   0.0530 358.9368 0003300  13.9146 347.1537  5.00115506151057
O3B FM12                
1 40350U 14083C   23087.24371214 -.00000030  00000+0  00000+0 0  9994
2 40350   0.0524 359.8260 0002881   4.7871 355.3863  5.00115432151049
O3B FM9                 
1 40351U 14083D   23088.06984904 -.00000030  00000+0  00000+0 0  9992
2 40351   0.0530 357.7543 0002740  10.1408 352.1060  5.00116197151233
DIAMOND RED             
1 42783U 17036U   23087.85009820  .00033717  00000+0  95497-3 0  9990
2 42783  97.1633 124.4793 0009253  47.0297 313.1722 15.36158760320447
DIAMOND GREEN           
1 42785U 17036W   23087.82747540  .00035891  00000+0  99754-3 0  9992
2 42785  97.1628 124.5744 0008977  48.9158 311.2861 15.36737347320513
DIAMOND BLUE            
1 42786U 17036X   23088.09586300  .00034631  00000+0  96970-3 0  9996
2 42786  97.1628 124.8112 0009134  46.1936 314.0063 15.36511459320470
LEO VANTAGE 1           
1 43113U 18004C   23088.26844327  .00004767  00000+0  37448-3 0  9994
2 43113  99.2419 203.9946 0394433  54.7856 308.9603 14.55966359265647
O3B FM15                
1 43231U 18024A   23088.13575401 -.00000030  00000+0  00000+0 0  9997
2 43231   0.0561   6.8834 0002977 358.1692 354.9472  5.00116483 92367
O3B FM16                
1 43232U 18024B   23087.58954992 -.00000030  00000+0  00000+0 0  9992
2 43232   0.0591   9.7510 0002994 355.2393 355.0094  5.00116200 92087
O3B FM14                
1 43233U 18024C   23088.42897095 -.00000030  00000+0  00000+0 0  9997
2 43233   0.0597  11.0379 0003050 358.0459 350.9185  5.00115678 92365
O3B FM13                
1 43234U 18024D   23087.48312633 -.00000030  00000+0  00000+0 0  9993
2 43234   0.0637 351.2167 0003627   5.9217   2.8563  5.00115220 92327
O3B FM20                
1 44112U 19020A   23087.45619972 -.00000030  00000+0  00000+0 0  9999
2 44112   0.0539   4.1580 0003360 359.9683 355.8733  5.00115646 72702
O3B FM19                
1 44113U 19020B   23087.68302706 -.00000030  00000+0  00000+0 0  9999
2 44113   0.0596   4.7496 0003485  25.1673 330.0998  5.00115348 72579
O3B FM17                
1 44114U 19020C   23087.16365604 -.00000030  00000+0  00000+0 0  9999
2 44114   0.0504  25.4903 0003052 337.0473 357.4606  5.00115873 72645
O3B FM18                
1 44115U 19020D   23087.50989817 -.00000030  00000+0  00000+0 0  9996
2 44115   0.0541   3.8115 0002851   0.7663 355.4215  5.00116011 72787
SALSAT                  
1 46495U 20068K   23087.79676179  .00008351  00000+0  56253-3 0  9996
2 46495  97.7621  35.0385 0017033  38.1620 322.0809 15.06828392136963
